[{"OBJECT_NAME":"MESON-1","OBJECT_ID":"2024-043AK","EPOCH":"2026-03-09T21:36:16.481664","MEAN_MOTION":15.29893494,"ECCENTRICITY":0.00095452,"INCLINATION":97.5469,"RA_OF_ASC_NODE":205.2839,"ARG_OF_PERICENTER":227.1432,"MEAN_ANOMALY":132.9007,"EPHEMERIS_TYPE":0,"CLASSIFICATION_TYPE":"U","NORAD_CAT_ID":59131,"ELEMENT_SET_NO":999,"REV_AT_EPOCH":11189,"BSTAR":0.0002974823,"MEAN_MOTION_DOT":8.544e-5,"MEAN_MOTION_DDOT":0},{"OBJECT_NAME":"STARLINK-31668","OBJECT_ID":"2024-076S","EPOCH":"2026-03-09T04:52:43.093920","MEAN_MOTION":15.2756978,"ECCENTRICITY":0.0001291,"INCLINATION":43.0046,"RA_OF_ASC_NODE":11.2859,"ARG_OF_PERICENTER":278.2147,"MEAN_ANOMALY":81.8559,"EPHEMERIS_TYPE":0,"CLASSIFICATION_TYPE":"U","NORAD_CAT_ID":59580,"ELEMENT_SET_NO":999,"REV_AT_EPOCH":10643,"BSTAR":-0.0001011497,"MEAN_MOTION_DOT":-3.044e-5,"MEAN_MOTION_DDOT":0}]
